ONEWEB-0668             
1 56711U 23068B   24294.52081919  .00000110  00000+0  25404-3 0  9994
2 56711  87.9130 349.2189 0001472  82.3186 277.8112 13.16596385 72215
ONEWEB-0676             
1 56712U 23068C   24294.57703820  .00000112  00000+0  26016-3 0  9994
2 56712  87.9137 349.2225 0002101 112.9663 247.1690 13.16592925 72143
ONEWEB-0677             
1 56713U 23068D   24294.34451016  .00000131  00000+0  28940-3 0  9996
2 56713  87.9282  34.7746 0001695 107.7115 252.4204 13.20770723 69965
ONEWEB-0679             
1 56715U 23068F   24294.16615789  .00000120  00000+0  28008-3 0  9990
2 56715  87.9136 349.3035 0001296 108.3204 251.8068 13.16597244 72813
ONEWEB-0680             
1 56716U 23068G   24294.20728002  .00000148  00000+0  32569-3 0  9996
2 56716  87.9340   4.5101 0001221  81.9760 278.1513 13.21826747 71170
ONEWEB-0682             
1 56718U 23068J   24294.30219941  .00000223  00000+0  55890-3 0  9992
2 56718  87.9130  19.6002 0001260  93.8668 266.2606 13.15546970 69929
